[{"OBJECT_NAME":"STARLINK-32455","OBJECT_ID":"2024-191M","EPOCH":"2026-02-07T05:22:08.699520","MEAN_MOTION":15.27593947,"ECCENTRICITY":0.00015636,"INCLINATION":43.0026,"RA_OF_ASC_NODE":330.3194,"ARG_OF_PERICENTER":24.3953,"MEAN_ANOMALY":335.6972,"EPHEMERIS_TYPE":0,"CLASSIFICATION_TYPE":"U","NORAD_CAT_ID":61632,"ELEMENT_SET_NO":999,"REV_AT_EPOCH":7283,"BSTAR":5.0600942e-5,"MEAN_MOTION_DOT":1.131e-5,"MEAN_MOTION_DDOT":0},{"OBJECT_NAME":"STARLINK-32396","OBJECT_ID":"2024-191N","EPOCH":"2026-02-07T05:05:30.795936","MEAN_MOTION":15.27572767,"ECCENTRICITY":0.00010674,"INCLINATION":43.0029,"RA_OF_ASC_NODE":330.2331,"ARG_OF_PERICENTER":286.0394,"MEAN_ANOMALY":74.034,"EPHEMERIS_TYPE":0,"CLASSIFICATION_TYPE":"U","NORAD_CAT_ID":61633,"ELEMENT_SET_NO":999,"REV_AT_EPOCH":7283,"BSTAR":1.8430223e-5,"MEAN_MOTION_DOT":2.45e-6,"MEAN_MOTION_DDOT":0},{"OBJECT_NAME":"STARLINK-32355","OBJECT_ID":"2024-191P","EPOCH":"2026-02-07T03:51:42.076224","MEAN_MOTION":15.2756574,"ECCENTRICITY":0.0002776,"INCLINATION":43.0092,"RA_OF_ASC_NODE":330.7062,"ARG_OF_PERICENTER":255.791,"MEAN_ANOMALY":104.2633,"EPHEMERIS_TYPE":0,"CLASSIFICATION_TYPE":"U","NORAD_CAT_ID":61634,"ELEMENT_SET_NO":999,"REV_AT_EPOCH":7282,"BSTAR":-0.00012292777,"MEAN_MOTION_DOT":-3.643e-5,"MEAN_MOTION_DDOT":0},{"OBJECT_NAME":"STARLINK-32370","OBJECT_ID":"2024-191Q","EPOCH":"2026-02-06T04:43:51.664800","MEAN_MOTION":15.2760025,"ECCENTRICITY":0.0004723,"INCLINATION":42.9961,"RA_OF_ASC_NODE":332.0538,"ARG_OF_PERICENTER":247.1159,"MEAN_ANOMALY":112.9194,"EPHEMERIS_TYPE":0,"CLASSIFICATION_TYPE":"U","NORAD_CAT_ID":61635,"ELEMENT_SET_NO":999,"REV_AT_EPOCH":7272,"BSTAR":-0.0001684,"MEAN_MOTION_DOT":-4.899e-5,"MEAN_MOTION_DDOT":0},{"OBJECT_NAME":"STARLINK-32405","OBJECT_ID":"2024-191R","EPOCH":"2026-02-07T03:57:15.363360","MEAN_MOTION":15.27599007,"ECCENTRICITY":0.00011789,"INCLINATION":43.002,"RA_OF_ASC_NODE":330.7407,"ARG_OF_PERICENTER":310.7548,"MEAN_ANOMALY":49.3201,"EPHEMERIS_TYPE":0,"CLASSIFICATION_TYPE":"U","NORAD_CAT_ID":61636,"ELEMENT_SET_NO":999,"REV_AT_EPOCH":7282,"BSTAR":-0.00028148971,"MEAN_MOTION_DOT":-8.004e-5,"MEAN_MOTION_DDOT":0},{"OBJECT_NAME":"STARLINK-32419","OBJECT_ID":"2024-191S","EPOCH":"2026-02-07T03:33:53.445600","MEAN_MOTION":15.27568258,"ECCENTRICITY":0.00012638,"INCLINATION":43.003,"RA_OF_ASC_NODE":327.1479,"ARG_OF_PERICENTER":278.552,"MEAN_ANOMALY":81.5189,"EPHEMERIS_TYPE":0,"CLASSIFICATION_TYPE":"U","NORAD_CAT_ID":61637,"ELEMENT_SET_NO":999,"REV_AT_EPOCH":7286,"BSTAR":0.00010288445,"MEAN_MOTION_DOT":2.569e-5,"MEAN_MOTION_DDOT":0},{"OBJECT_NAME":"STARLINK-32320","OBJECT_ID":"2024-191T","EPOCH":"2026-02-07T04:02:48.630624","MEAN_MOTION":15.2762565,"ECCENTRICITY":0.00021679,"INCLINATION":42.987,"RA_OF_ASC_NODE":330.7768,"ARG_OF_PERICENTER":47.436,"MEAN_ANOMALY":312.6674,"EPHEMERIS_TYPE":0,"CLASSIFICATION_TYPE":"U","NORAD_CAT_ID":61638,"ELEMENT_SET_NO":999,"REV_AT_EPOCH":7282,"BSTAR":-0.00037624043,"MEAN_MOTION_DOT":-0.00010616,"MEAN_MOTION_DDOT":0},{"OBJECT_NAME":"STARLINK-32341","OBJECT_ID":"2024-191U","EPOCH":"2026-02-07T04:56:57.360480","MEAN_MOTION":15.27566105,"ECCENTRICITY":0.00011016,"INCLINATION":43.0032,"RA_OF_ASC_NODE":326.7227,"ARG_OF_PERICENTER":352.5632,"MEAN_ANOMALY":7.5203,"EPHEMERIS_TYPE":0,"CLASSIFICATION_TYPE":"U","NORAD_CAT_ID":61639,"ELEMENT_SET_NO":999,"REV_AT_EPOCH":7287,"BSTAR":3.0245942e-5,"MEAN_MOTION_DOT":5.7e-6,"MEAN_MOTION_DDOT":0},{"OBJECT_NAME":"STARLINK-32339","OBJECT_ID":"2024-191V","EPOCH":"2026-02-07T04:10:42.163968","MEAN_MOTION":15.27560062,"ECCENTRICITY":0.00031804,"INCLINATION":43.0015,"RA_OF_ASC_NODE":326.4781,"ARG_OF_PERICENTER":245.1452,"MEAN_ANOMALY":114.907,"EPHEMERIS_TYPE":0,"CLASSIFICATION_TYPE":"U","NORAD_CAT_ID":61640,"ELEMENT_SET_NO":999,"REV_AT_EPOCH":7286,"BSTAR":-5.800337e-5,"MEAN_MOTION_DOT":-1.858e-5,"MEAN_MOTION_DDOT":0},{"OBJECT_NAME":"STARLINK-32327","OBJECT_ID":"2024-191W","EPOCH":"2026-02-07T04:31:01.259328","MEAN_MOTION":15.27581438,"ECCENTRICITY":0.00020544,"INCLINATION":43.002,"RA_OF_ASC_NODE":326.5859,"ARG_OF_PERICENTER":251.5014,"MEAN_ANOMALY":108.5615,"EPHEMERIS_TYPE":0,"CLASSIFICATION_TYPE":"U","NORAD_CAT_ID":61641,"ELEMENT_SET_NO":999,"REV_AT_EPOCH":7287,"BSTAR":3.4795353e-5,"MEAN_MOTION_DOT":6.95e-6,"MEAN_MOTION_DDOT":0},{"OBJECT_NAME":"STARLINK-32264","OBJECT_ID":"2024-191X","EPOCH":"2026-02-07T03:37:40.825344","MEAN_MOTION":15.28579332,"ECCENTRICITY":0.00026712,"INCLINATION":43.0003,"RA_OF_ASC_NODE":330.6369,"ARG_OF_PERICENTER":240.4977,"MEAN_ANOMALY":119.5609,"EPHEMERIS_TYPE":0,"CLASSIFICATION_TYPE":"U","NORAD_CAT_ID":61642,"ELEMENT_SET_NO":999,"REV_AT_EPOCH":7282,"BSTAR":0.0020833438,"MEAN_MOTION_DOT":0.00059323,"MEAN_MOTION_DDOT":0},{"OBJECT_NAME":"STARLINK-32337","OBJECT_ID":"2024-191Y","EPOCH":"2026-02-07T04:42:09.590976","MEAN_MOTION":15.27563551,"ECCENTRICITY":0.00011243,"INCLINATION":43.0053,"RA_OF_ASC_NODE":326.6407,"ARG_OF_PERICENTER":270.6073,"MEAN_ANOMALY":89.465,"EPHEMERIS_TYPE":0,"CLASSIFICATION_TYPE":"U","NORAD_CAT_ID":61643,"ELEMENT_SET_NO":999,"REV_AT_EPOCH":7363,"BSTAR":-4.1703414e-5,"MEAN_MOTION_DOT":-1.409e-5,"MEAN_MOTION_DDOT":0},{"OBJECT_NAME":"STARLINK-32238","OBJECT_ID":"2024-193A","EPOCH":"2026-02-06T20:37:05.142720","MEAN_MOTION":15.30235672,"ECCENTRICITY":0.00011654,"INCLINATION":53.1593,"RA_OF_ASC_NODE":234.4042,"ARG_OF_PERICENTER":76.5951,"MEAN_ANOMALY":283.518,"EPHEMERIS_TYPE":0,"CLASSIFICATION_TYPE":"U","NORAD_CAT_ID":61661,"ELEMENT_SET_NO":999,"REV_AT_EPOCH":7180,"BSTAR":0.00024675648,"MEAN_MOTION_DOT":6.964e-5,"MEAN_MOTION_DDOT":0},{"OBJECT_NAME":"STARLINK-32310","OBJECT_ID":"2024-193B","EPOCH":"2026-02-06T20:08:15.309312","MEAN_MOTION":15.30191443,"ECCENTRICITY":9.795e-5,"INCLINATION":53.1585,"RA_OF_ASC_NODE":234.2795,"ARG_OF_PERICENTER":96.0856,"MEAN_ANOMALY":264.0257,"EPHEMERIS_TYPE":0,"CLASSIFICATION_TYPE":"U","NORAD_CAT_ID":61662,"ELEMENT_SET_NO":999,"REV_AT_EPOCH":7180,"BSTAR":6.713979e-6,"MEAN_MOTION_DOT":-1.6e-6,"MEAN_MOTION_DDOT":0},{"OBJECT_NAME":"STARLINK-32308","OBJECT_ID":"2024-193C","EPOCH":"2026-02-06T19:31:47.284608","MEAN_MOTION":15.30188582,"ECCENTRICITY":0.00012193,"INCLINATION":53.1591,"RA_OF_ASC_NODE":234.1181,"ARG_OF_PERICENTER":79.4223,"MEAN_ANOMALY":280.6915,"EPHEMERIS_TYPE":0,"CLASSIFICATION_TYPE":"U","NORAD_CAT_ID":61663,"ELEMENT_SET_NO":999,"REV_AT_EPOCH":7180,"BSTAR":-3.388279e-6,"MEAN_MOTION_DOT":-4.59e-6,"MEAN_MOTION_DDOT":0},{"OBJECT_NAME":"STARLINK-32301","OBJECT_ID":"2024-193D","EPOCH":"2026-02-06T20:47:46.413024","MEAN_MOTION":15.30196596,"ECCENTRICITY":9.69e-5,"INCLINATION":53.159,"RA_OF_ASC_NODE":234.448,"ARG_OF_PERICENTER":111.6466,"MEAN_ANOMALY":248.4638,"EPHEMERIS_TYPE":0,"CLASSIFICATION_TYPE":"U","NORAD_CAT_ID":61664,"ELEMENT_SET_NO":999,"REV_AT_EPOCH":7180,"BSTAR":-3.5556e-5,"MEAN_MOTION_DOT":-1.412e-5,"MEAN_MOTION_DDOT":0}]
