STARLINK-32455          
1 61632U 24191M   26038.22371180  .00001131  00000+0  50601-4 0  9999
2 61632  43.0026 330.3194 0001563  24.3953 335.6972 15.27593947 72836
STARLINK-32396          
1 61633U 24191N   26038.21216199  .00000245  00000+0  18430-4 0  9996
2 61633  43.0029 330.2331 0001067 286.0394  74.0340 15.27572767 72837
STARLINK-32355          
1 61634U 24191P   26038.16090366 -.00003643  00000+0 -12293-3 0  9994
2 61634  43.0092 330.7062 0002776 255.7910 104.2633 15.27565740 72822
STARLINK-32370          
1 61635U 24191Q   26037.19712575 -.00004899  00000+0 -16840-3 0  9996
2 61635  42.9961 332.0538 0004723 247.1159 112.9194 15.27600250 72726
STARLINK-32405          
1 61636U 24191R   26038.16476115 -.00008004  00000+0 -28149-3 0  9999
2 61636  43.0020 330.7407 0001178 310.7548  49.3201 15.27599007 72825
STARLINK-32419          
1 61637U 24191S   26038.14853525  .00002569  00000+0  10288-3 0  9995
2 61637  43.0030 327.1479 0001263 278.5520  81.5189 15.27568258 72863
STARLINK-32320          
1 61638U 24191T   26038.16861841 -.00010616  00000+0 -37624-3 0  9995
2 61638  42.9870 330.7768 0002167  47.4360 312.6674 15.27625650 72827
STARLINK-32341          
1 61639U 24191U   26038.20621945  .00000570  00000+0  30246-4 0  9990
2 61639  43.0032 326.7227 0001101 352.5632   7.5203 15.27566105 72876
STARLINK-32339          
1 61640U 24191V   26038.17409912 -.00001858  00000+0 -58003-4 0  9999
2 61640  43.0015 326.4781 0003180 245.1452 114.9070 15.27560062 72867
STARLINK-32327          
1 61641U 24191W   26038.18820902  .00000695  00000+0  34795-4 0  9995
2 61641  43.0020 326.5859 0002054 251.5014 108.5615 15.27581438 72870
STARLINK-32264          
1 61642U 24191X   26038.15116696  .00059323  00000+0  20833-2 0  9999
2 61642  43.0003 330.6369 0002671 240.4977 119.5609 15.28579332 72825
STARLINK-32337          
1 61643U 24191Y   26038.19594434 -.00001409  00000+0 -41703-4 0  9999
2 61643  43.0053 326.6407 0001124 270.6073  89.4650 15.27563551 73639
STARLINK-32238          
1 61661U 24193A   26037.85908730  .00006964  00000+0  24676-3 0  9999
2 61661  53.1593 234.4042 0001165  76.5951 283.5180 15.30235672 71800
STARLINK-32310          
1 61662U 24193B   26037.83906608 -.00000160  00000+0  67140-5 0  9998
2 61662  53.1585 234.2795 0000979  96.0856 264.0257 15.30191443 71804
STARLINK-32308          
1 61663U 24193C   26037.81374172 -.00000459  00000+0 -33883-5 0  9991
2 61663  53.1591 234.1181 0001219  79.4223 280.6915 15.30188582 71806
STARLINK-32301          
1 61664U 24193D   26037.86650941 -.00001412  00000+0 -35556-4 0  9996
2 61664  53.1590 234.4480 0000969 111.6466 248.4638 15.30196596 71808
